#dP2022  4 13  0  0  0.00000000      97 __u+U IGS14 FIT  IAC
## 2205 259200.00000000   900.00000000 59682 0.0000000000000
+  123   C01C02C04C05C06C07C08C09C10C11C12C13C14C16C19C20C21
+        C22C23C24C25C26C27C28C29C30C32C33C34C35C36C37C38C39
+        C40C41C42C43C44C45C46C59C60E01E02E03E04E05E07E08E09
+        E10E11E12E13E14E15E18E19E21E24E25E26E27E30E31E33E34
+        E36G01G02G03G04G05G06G07G08G09G10G12G13G14G15G16G17
+        G18G19G20G21G22G23G24G25G26G27G28G29G30G31G32J02J03
+        J07R01R02R03R04R05R07R08R09R11R12R13R14R15R17R18R19
+        R20R21R22R24  0  0  0  0  0  0  0  0  0  0  0  0  0
++        13 11 10 11  7  7  7  7  7  7  7  7  7  7  6  6  6
++         6  6  5  6  5  6  6  5  6  6  6  6  6  6  6  6  6
++         6  6  6  6  6  6  6 17 14  4  4  4  4  4  4  4  4
++         5  4  4  4  5  4  4  4  4  4  4  4  4  4  4  4  5
++         4  3  3  3  3  3  3  4  3  3  3  3  3  4  4  3  4
++         3  4  4  4  3  3  3  3  3  3  4  3  3  3  3  9  9
++        14  7  6  6  6  6  6  6  6  7  6  7  6  6  6  6  6
++         6  6  7  6  0  0  0  0  0  0  0  0  0  0  0  0  0
%c M  cc GPS ccc cccc cccc cccc cccc ccccc ccccc ccccc ccccc
%c cc cc ccc ccc cccc cccc cccc cccc ccccc ccccc ccccc ccccc
%f  1.2500000  1.025000000  0.00000000000  0.000000000000000
%f  0.0000000  0.000000000  0.00000000000  0.000000000000000
%i    0    0    0    0      0      0      0      0         0
%i    0    0    0    0      0      0      0      0         0
/* INFORMATION & ANALYSIS CENTER (IAC)            FINAL DATA
/* S/V CLOCKS ARE ALIGNED TO GNSS TIME                      
/* G:C1WC2W R:C1PC2P E:C1XC5X C:C2IC6I J:C1CC2S             
/* PCV:IGS14_2196 OL/AL:FES2004  NONE     YN ORB:CoN CLK:CoN
*  2022 04 13 22 30  0.00000000
PC01 -34374.810457  24425.432746   -476.343722 999999.999999
PC02   4530.721980  41946.503881     39.261241    129.708613
PC04 -39618.651812  14428.177042   -468.918957   -187.061287
PC05  21999.273840  36036.312536    147.327771    150.921024
PC06 -13675.019940  23731.463706  32021.059142   -210.142766
PC07 -14062.096693  39817.165297  -1288.314931     10.189610
PC08    343.112114  30125.409106 -29424.708976    257.061422
PC09  -1398.935513  24621.916746  34537.134477   -693.909010
PC10  -8153.719106  40788.524066  -8068.560348    136.304442
PC11  24842.639446  -8110.295167   9814.701821    290.013712
PC12  26614.825902   3047.849552  -7773.257829   -628.467241
PC13   7944.267086  34632.234577 -22346.394438    -61.511430
PC14  17818.137509 -16624.974416  13569.437087    457.722804
PC16 -16062.416508  22967.016689  31592.887886    118.676179
PC19 -14284.778205  23483.090167  -4860.450839    878.459610
PC20 -18391.731484   9094.554259 -18909.474085   -876.944140
PC21  11647.137440  11786.677163  22480.550068   -107.427294
PC22  -1810.712133  24876.434730  12555.277257   -967.443362
PC23  -7548.356329 -24476.338681 -11078.455895   -933.293534
PC24  19682.728251   3650.188469 -19444.685848   -953.243660
PC25   7544.503549 -15875.286936 -21687.426919   -751.445520
PC26  19799.723330  18414.586900  -6838.918839    752.180098
PC27 -21676.258537  -8779.479997  15188.648093    707.383524
PC28  -3343.444756 -15608.900649  22889.452510     54.958704
PC29 -17066.384505  13987.934410 -17088.426946    540.966875
PC30 -27626.655565   3778.064448   -674.892141    496.883273
PC32 -11722.103350 -11702.216288 -22434.700523   -963.436305
PC33  14218.738134 -23476.562647   4994.715946   -968.280368
PC34  27530.952575  -4359.484907   1615.769850   -426.237887
PC35   2870.304584  15712.492859 -22894.546495    227.473097
PC36  -8349.783558  15260.213114  21840.383169   -964.296315
PC37 -18998.671385 -19628.671372   5768.524462   -924.272135
PC38  -6881.166017  26578.074238 -31926.116017    224.944236
PC39 -22184.607015  22408.838790  27934.324684     34.938541
PC40 -20238.455813  37069.037482   1242.567339    260.600996
PC41   2095.823395 -25033.876936 -12091.298603   -967.793456
PC42  18358.435723  -7950.058888  19495.531328   -950.605181
PC43  17771.056146 -13756.037752  16550.773944   -930.144275
PC44  21869.038112   8229.756453 -15298.283135    626.847217
PC45   7813.763849  24460.543699  10898.504179    730.572500
PC46 -19142.337226  -2245.949379  20193.019724   -270.385109
PC59 -32321.000596  27088.142079    400.141564 999999.999999
PC60   7296.601413  41515.904123  -1543.452314     -0.596393
PE01   8273.579872  27263.775973  -8013.902739   -615.828780
PE02  -8360.709555 -27209.076410   8148.765990    292.640754
PE03  -6280.216725 -16296.930589 -23893.474986   -547.708097
PE04  22069.538231   1109.105815  19705.653787  -1005.933065
PE05  13536.622426 -22215.917937 -14111.066797   -191.119363
PE07 -25170.816194  15136.712466  -3707.159217   -658.317539
PE08 -22186.900592   -626.387216 -19582.948611   -511.847341
PE09  25059.355576 -15328.843291   3582.014673   -483.280604
PE10  27121.525447   3795.656250  11231.588361   -506.531906
PE11  22129.234293  -3989.642958  19252.634000   3966.202902
PE12  27552.057373  10695.251055   1870.523927   4664.316774
PE13 -22531.425414   3503.702874 -18863.556777    428.001617
PE14   1781.898060 -16305.826601  16813.896290  -1813.053420
PE15 -27531.764258 -10714.993007  -1716.214247    751.847470
PE18  -3383.355740  22593.753940 -23051.728273  -1568.042135
PE19   3700.083175  17595.020816  23525.010729  -2966.489306
PE21  -3662.344851  27742.419050   9636.672773   -728.288122
PE24  14805.943467 -10990.376983 -23177.551087   -559.403117
PE25   3837.468629 -27642.156932  -9877.521159   -570.299959
PE26  -3373.101607  16104.598988 -24603.155937  -1026.943912
PE27 -14292.865551  12328.405988  22796.366691   -275.591923
PE30 -16240.627326 -11385.664503  21964.367512   -428.425084
PE31  16414.826289  10187.221965 -22421.684637   -495.026411
PE33  16289.420654  18545.051618 -16346.098489   -457.640076
PE34 -16492.717800 -18486.201926  16192.907310   -511.907558
PE36   4359.295934 -15551.534558  24806.862852   -359.266763
PG01  22501.251232  14468.576053   -742.271784    385.710011
PG02  -7029.523386 -18023.455200  18790.856930   -653.089604
PG03  12714.928403  13438.572066  18995.310135   -205.430569
PG04  18505.400901   4995.511105  18430.174749   -176.145749
PG05  -5942.651320 -24706.236253  -7618.064425    -78.199395
PG06   9169.823299 -11555.018153  22156.452332    265.720244
PG07  22893.621795   2905.173239 -13180.086644    320.082376
PG08  10083.306782  11584.744538 -21731.063619    -63.820243
PG09  23765.634370  -5006.945494  10719.295743   -343.898436
PG10 -11602.649323  16793.321863 -16686.895298   -378.350841
PG12 -10082.372641 -17646.568201  16894.982863   -199.916117
PG13   -272.799242 -15756.488158 -21507.191220    293.682787
PG14  13035.324623 -15559.052498 -17091.876330   -102.261853
PG15 -12298.859392 -10751.500954 -21383.168329    -69.161636
PG16     11.505890  26036.755976  -4049.455710   -491.336155
PG17  21608.547010 -14558.160053   5727.083941    599.998356
PG18 -22593.320615  -3118.256320 -13704.253677    196.213045
PG19  17593.653535 -15870.504354  11536.377507    144.000010
PG20  -1514.552626 -26474.228693   3007.504075    515.840002
PG21  18104.148255  16784.965084  -9981.975871    160.411370
PG22 -14354.126238  17410.133909  14274.481219    242.914989
PG23 -14714.793732   5324.232628 -21457.203978    -14.717048
PG24 -21556.036347 -15090.116768  -5282.281924    256.923427
PG25 -15040.312092  -3195.283693  21389.157879    311.579138
PG26  -5216.067999  24467.504698   8359.961866    198.393959
PG27  -2595.686002  17176.628117 -20181.370514    182.297192
PG28   9329.504773 -22729.398550  -9859.889533    371.638542
PG29 -23715.436314   2262.743881  11756.929980   -502.732928
PG30  17867.096166  -5278.182477 -18943.793607   -523.622021
PG31  -7412.233803  13361.828748  21584.502073   -173.289738
PG32 -19299.164409  16687.134671   7161.494630   -104.831452
PJ02 -26418.897338  25676.833574  25400.900971     -2.700351
PJ03 -32699.016994  16710.256504 -16090.062841     -1.522756
PJ07 -25396.163500  33655.898543     50.391745     -0.010630
PR01  -5474.535007  20484.940022  14199.756984      7.779423
PR02   8586.548553   6714.824455  23109.230173    515.447910
PR03  16589.843022  -9698.883251  16853.550562     54.872212
PR04  15252.949071 -20407.172169   1365.477149    136.572063
PR05   5634.137990 -19915.581030 -14907.321330     91.111390
PR07 -16682.531467  10303.218702 -16244.924748     33.821561
PR08 -15079.291110  20527.433588  -1073.282134    -64.605040
PR09 -14638.838587 -17935.911285  10640.298806     49.628851
PR11  -4265.880482  13923.458730  20953.878211     41.258262
PR12   7299.113761  23386.985677   7089.529048     17.913816
PR13  14258.030865  18872.248046  -9567.468703    -20.831155
PR14  12900.939688   2476.107412 -21860.428475     76.487915
PR15   4020.698297 -14584.949961 -20521.395386     96.846760
PR17  25054.365274    210.516547   4704.415029    517.301318
PR18  15743.727743  -6907.380254  18880.195025    113.482070
PR19   -407.068370 -10445.677848  23264.614177   -185.262876
PR20 -20030.075335  -8524.310450  13260.590818    -68.573688
PR21 -24759.746211    332.123611  -6168.172344   -293.105134
PR22 -14858.003329   7114.434051 -19450.965860   -176.724651
PR24  20698.942338   8070.397526 -12514.052224     88.941824
EOF
